ONEWEB-0415             
1 51624U 22012C   24196.90246619 -.00000522  00000+0 -15309-2 0  9994
2 51624  87.8949 175.9401 0001684  87.3588 272.7732 13.10375032117318
ONEWEB-0416             
1 51625U 22012D   24196.91408402 -.00000282  00000+0 -84278-3 0  9991
2 51625  87.8955 175.9342 0002063  86.3150 273.8213 13.10376031117356
ONEWEB-0422             
1 51626U 22012E   24196.89323246  .00000024  00000+0  29402-4 0  9992
2 51626  87.9185 145.6803 0002460  63.7546 296.3838 13.17650223121328
ONEWEB-0423             
1 51627U 22012F   24196.88676804  .00000038  00000+0  65198-4 0  9990
2 51627  87.9187 145.6828 0002213  80.1572 279.9810 13.17651674121212
ONEWEB-0425             
1 51628U 22012G   24196.92407203  .00000577  00000+0  16159-2 0  9990
2 51628  87.8950 175.9148 0002386  90.8625 269.2776 13.10375560117352
ONEWEB-0428             
1 51629U 22012H   24196.90412927 -.00000390  00000+0 -11530-2 0  9991
2 51629  87.8953 175.9347 0001887  76.9227 283.2111 13.10375920117310
ONEWEB-0431             
1 51630U 22012J   24196.95047986  .00000125  00000+0  32198-3 0  9995
2 51630  87.8939 175.9209 0001499  69.7245 290.4044 13.10370840117379
ONEWEB-0434             
1 51631U 22012K   24196.92739240  .00000620  00000+0  17390-2 0  9990
2 51631  87.8953 175.9417 0002158  81.0096 279.1275 13.10374942117356
